STARLINK-31057          
1 58545U 23192Q   26068.37098308 -.00000199  00000+0  54177-5 0  9992
2 58545  53.1617  64.4246 0001320 105.8070 254.3077 15.30188937125938
FLOCK 4G-13             
1 62621U 25009N   26068.70638971  .00053076  00000+0  16695-2 0  9995
2 62621  97.4019 151.0918 0003801 292.7207  67.3633 15.32770015 63700
